ALSAT 1                 
1 27559U 02054A   13027.20821318  .00000256  00000-0  50059-4 0  7069
2 27559  97.7745 232.7519 0024561  98.5766  13.2343 14.70179910543598
NIGERIASAT 1            
1 27941U 03042C   13027.78258725  .00000256  00000-0  41038-4 0  5325
2 27941  97.7996 236.1539 0052952  39.4423 321.0623 14.78838770499540
UK-DMC                  
1 27942U 03042D   13026.65868634  .00000423  00000-0  65996-4 0  7931
2 27942  97.7875 237.4088 0064208 240.3770 149.6191 14.76597790499574
BILSAT 1                
1 27943U 03042E   13027.79047539  .00000172  00000-0  41820-4 0  3657
2 27943  97.7982 220.5725 0010304 280.8031  79.2018 14.63347561498628
BEIJING 1               
1 28890U 05043A   13027.76702143  .00000091  00000-0  27767-4 0  2471
2 28890  97.8708 247.9671 0016022 156.3868 203.8077 14.60434204386622
HJ-1A                   
1 33320U 08041A   13027.72447865  .00000385  00000-0  64882-4 0  8593
2 33320  97.8393  95.4446 0028066 140.2001 220.1253 14.74612706236570
HJ-1B                   
1 33321U 08041B   13027.76105994  .00000486  00000-0  79583-4 0  9162
2 33321  97.8417  95.7823 0037499 156.8649 203.4265 14.74607345236560
YAOGAN 4                
1 33446U 08061A   13027.75335751  .00000436  00000-0  72474-4 0  6161
2 33446  97.7604  88.1281 0018671  95.4151 264.9175 14.74597707223845
YAOGAN 5                
1 33456U 08064A   13027.90729878  .00009703  00000-0  23133-3 0  6195
2 33456  97.2319 102.6604 0008796  16.8226  98.8117 15.41734262230024
DEIMOS-1                
1 35681U 09041A   13027.75340331 -.00003728  00000-0 -61618-3 0  8835
2 35681  98.0179 289.0312 0001615  88.7012 271.4418 14.69851298187728
UK-DMC 2                
1 35683U 09041C   13027.72561352  .00000194  00000-0  40464-4 0  9034
2 35683  98.0186 288.0874 0001262 112.6301 247.5049 14.69905680187646
RISAT 1                 
1 38248U 12017A   13027.90196296  .00001159  00000-0  77432-4 0  8656
2 38248  97.5939  36.1657 0001772 105.6284 346.5904 15.08955183 41764
